$$SOE
2460735.500000000, A.D. 2025-Mar-01 00:00:00.0000, -1.723003133286401E+08, 5.126885411282495E+08, 1.769320137200910E+07,
2460742.500000000, A.D. 2025-Mar-08 00:00:00.0000, -1.820156555434192E+08, 5.113620016335224E+08, 1.697449990170899E+07,
2460749.500000000, A.D. 2025-Mar-15 00:00:00.0000, -1.916755713644371E+08, 5.098806121918200E+08, 1.625063139028084E+07,
2460756.500000000, A.D. 2025-Mar-22 00:00:00.0000, -2.012777413249554E+08, 5.082464378982295E+08, 1.552186802921736E+07,
2460763.500000000, A.D. 2025-Mar-29 00:00:00.0000, -2.108199192340015E+08, 5.064615624792703E+08, 1.478847846506587E+07,
2460770.500000000, A.D. 2025-Apr-05 00:00:00.0000, -2.202999303164690E+08, 5.045280851372259E+08, 1.405072759591249E+07,
2460777.500000000, A.D. 2025-Apr-12 00:00:00.0000, -2.297156695409237E+08, 5.024481184775791E+08, 1.330887647864544E+07,
2460784.500000000, A.D. 2025-Apr-19 00:00:00.0000, -2.390651003269033E+08, 5.002237866368738E+08, 1.256318229137224E+07,
2460791.500000000, A.D. 2025-Apr-26 00:00:00.0000, -2.483462533647558E+08, 4.978572234062566E+08, 1.181389830879331E+07,
2460798.500000000, A.D. 2025-May-03 00:00:00.0000, -2.575572254389833E+08, 4.953505703682423E+08, 1.106127388103876E+07,
2460805.500000000, A.D. 2025-May-10 00:00:00.0000, -2.666961782309030E+08, 4.927059750537283E+08, 1.030555441348079E+07,
2460812.500000000, A.D. 2025-May-17 00:00:00.0000, -2.757613370680193E+08, 4.899255890764821E+08, 9.546981340275913E+06,
2460819.500000000, A.D. 2025-May-24 00:00:00.0000, -2.847509894500516E+08, 4.870115661887403E+08, 8.785792070778012E+06,
2460826.500000000, A.D. 2025-May-31 00:00:00.0000, -2.936634829375388E+08, 4.839660605668740E+08, 8.022219895506769E+06,
2460833.500000000, A.D. 2025-Jun-07 00:00:00.0000, -3.024972228076870E+08, 4.807912265300450E+08, 7.256493986530870E+06,
2460840.500000000, A.D. 2025-Jun-14 00:00:00.0000, -3.112506718453222E+08, 4.774892190236205E+08, 6.488839654254019E+06,
2460847.500000000, A.D. 2025-Jun-21 00:00:00.0000, -3.199223510542624E+08, 4.740621915937592E+08, 5.719478481350541E+06,
2460854.500000000, A.D. 2025-Jun-28 00:00:00.0000, -3.285108381634060E+08, 4.705122936144896E+08, 4.948628190958619E+06,
2460861.500000000, A.D. 2025-Jul-05 00:00:00.0000, -3.370147654476570E+08, 4.668416689216926E+08, 4.176502564213783E+06,
2460868.500000000, A.D. 2025-Jul-12 00:00:00.0000, -3.454328180571838E+08, 4.630524550471575E+08, 3.403311450259447E+06,
2460875.500000000, A.D. 2025-Jul-19 00:00:00.0000, -3.537637326673018E+08, 4.591467824754932E+08, 2.629260804134786E+06,
2460882.500000000, A.D. 2025-Jul-26 00:00:00.0000, -3.620062962408938E+08, 4.551267738649530E+08, 1.854552728499413E+06,
2460889.500000000, A.D. 2025-Aug-02 00:00:00.0000, -3.701593448397912E+08, 4.509945432515557E+08, 1.079385514828414E+06,
2460896.500000000, A.D. 2025-Aug-09 00:00:00.0000, -3.782217624633823E+08, 4.467521952197458E+08, 3.039536806430817E+05,
2460903.500000000, A.D. 2025-Aug-16 00:00:00.0000, -3.861924798390335E+08, 4.424018239743416E+08, -4.715520095007420E+05,
2460910.500000000, A.D. 2025-Aug-23 00:00:00.0000, -3.940704728730872E+08, 4.379455123282456E+08, -1.246944564761728E+06,
2460917.500000000, A.D. 2025-Aug-30 00:00:00.0000, -4.018547604348639E+08, 4.333853313179402E+08, -2.022040802291512E+06,
2460924.500000000, A.D. 2025-Sep-06 00:00:00.0000, -4.095444028933395E+08, 4.287233414453288E+08, -2.796661183210641E+06,
2460931.500000000, A.D. 2025-Sep-13 00:00:00.0000, -4.171385030783532E+08, 4.239615930618556E+08, -3.570629499958724E+06,
2460938.500000000, A.D. 2025-Sep-20 00:00:00.0000, -4.246362063930399E+08, 4.191021242485567E+08, -4.343772849518329E+06,
2460945.500000000, A.D. 2025-Sep-27 00:00:00.0000, -4.320366990192641E+08, 4.141469593009743E+08, -5.115921735188931E+06,
2460952.500000000, A.D. 2025-Oct-04 00:00:00.0000, -4.393392062336811E+08, 4.090981083563976E+08, -5.886910067893237E+06,
2460959.500000000, A.D. 2025-Oct-11 00:00:00.0000, -4.465429912083586E+08, 4.039575672188605E+08, -6.656575109858513E+06,
2460966.500000000, A.D. 2025-Oct-18 00:00:00.0000, -4.536473540123276E+08, 3.987273171054745E+08, -7.424757409162343E+06,
2460973.500000000, A.D. 2025-Oct-25 00:00:00.0000, -4.606516306749078E+08, 3.934093243230893E+08, -8.191300737140924E+06,
2460980.500000000, A.D. 2025-Nov-01 00:00:00.0000, -4.675551922720940E+08, 3.880055398891597E+08, -8.956052031206876E+06,
2460987.500000000, A.D. 2025-Nov-08 00:00:00.0000, -4.743574440022483E+08, 3.825178990642788E+08, -9.718861349094778E+06,
2460994.500000000, A.D. 2025-Nov-15 00:00:00.0000, -4.810578241038256E+08, 3.769483207370057E+08, -1.047958185321552E+07,
2461001.500000000, A.D. 2025-Nov-22 00:00:00.0000, -4.876558022127316E+08, 3.712987068802954E+08, -1.123806984440570E+07,
2461008.500000000, A.D. 2025-Nov-29 00:00:00.0000, -4.941508773126821E+08, 3.655709432135985E+08, -1.199418473859631E+07,
2461015.500000000, A.D. 2025-Dec-06 00:00:00.0000, -5.005425775563376E+08, 3.597669009338492E+08, -1.274778878897072E+07,
2461022.500000000, A.D. 2025-Dec-13 00:00:00.0000, -5.068304615234560E+08, 3.538884361444911E+08, -1.349874686910298E+07,
2461029.500000000, A.D. 2025-Dec-20 00:00:00.0000, -5.130141174219518E+08, 3.479373880044540E+08, -1.424692655394912E+07,
2461036.500000000, A.D. 2025-Dec-27 00:00:00.0000, -5.190931613054497E+08, 3.419155781868275E+08, -1.499219818850993E+07,
2461043.500000000, A.D. 2026-Jan-03 00:00:00.0000, -5.250672357669134E+08, 3.358248110310143E+08, -1.573443486076447E+07,
2461050.500000000, A.D. 2026-Jan-10 00:00:00.0000, -5.309360089985396E+08, 3.296668737092445E+08, -1.647351234448193E+07,
2461057.500000000, A.D. 2026-Jan-17 00:00:00.0000, -5.366991739850186E+08, 3.234435363156359E+08, -1.720930904070023E+07,
2461064.500000000, A.D. 2026-Jan-24 00:00:00.0000, -5.423564477518656E+08, 3.171565519002503E+08, -1.794170592310545E+07,
2461071.500000000, A.D. 2026-Jan-31 00:00:00.0000, -5.479075706450188E+08, 3.108076564406053E+08, -1.867058648999706E+07,
2461078.500000000, A.D. 2026-Feb-07 00:00:00.0000, -5.533523055797971E+08, 3.043985686932070E+08, -1.939583673308122E+07,
2461085.500000000, A.D. 2026-Feb-14 00:00:00.0000, -5.586904370057013E+08, 2.979309899096915E+08, -2.011734514746234E+07,
2461092.500000000, A.D. 2026-Feb-21 00:00:00.0000, -5.639217691990119E+08, 2.914066039943242E+08, -2.083500277112408E+07,
2461099.500000000, A.D. 2026-Feb-28 00:00:00.0000, -5.690461249677448E+08, 2.848270792558454E+08, -2.154870306006604E+07,
2461106.500000000, A.D. 2026-Mar-07 00:00:00.0000, -5.740633468276055E+08, 2.781940698032699E+08, -2.225834156964819E+07,
2461113.500000000, A.D. 2026-Mar-14 00:00:00.0000, -5.789732978728697E+08, 2.715092142525950E+08, -2.296381588730592E+07,
2461120.500000000, A.D. 2026-Mar-21 00:00:00.0000, -5.837758605584235E+08, 2.647741346414376E+08, -2.366502574314366E+07,
2461127.500000000, A.D. 2026-Mar-28 00:00:00.0000, -5.884709354022017E+08, 2.579904365791235E+08, -2.436187302992347E+07,
2461134.500000000, A.D. 2026-Apr-04 00:00:00.0000, -5.930584402119869E+08, 2.511597096660064E+08, -2.505426175592509E+07,
2461141.500000000, A.D. 2026-Apr-11 00:00:00.0000, -5.975383095625570E+08, 2.442835278216960E+08, -2.574209798508646E+07,
2461148.500000000, A.D. 2026-Apr-18 00:00:00.0000, -6.019104943634869E+08, 2.373634495150491E+08, -2.642528977939981E+07,
2461155.500000000, A.D. 2026-Apr-25 00:00:00.0000, -6.061749614712173E+08, 2.304010179101416E+08, -2.710374714637799E+07,
2461162.500000000, A.D. 2026-May-02 00:00:00.0000, -6.103316933140361E+08, 2.233977608981364E+08, -2.777738199665352E+07,
2461169.500000000, A.D. 2026-May-09 00:00:00.0000, -6.143806874046392E+08, 2.163551909484242E+08, -2.844610812840128E+07,
2461176.500000000, A.D. 2026-May-16 00:00:00.0000, -6.183219553614906E+08, 2.092748049170194E+08, -2.910984126182168E+07,
2461183.500000000, A.D. 2026-May-23 00:00:00.0000, -6.221555213863078E+08, 2.021580848341858E+08, -2.976849904480120E+07,
2461190.500000000, A.D. 2026-May-30 00:00:00.0000, -6.258814222754884E+08, 1.950064999904055E+08, -3.042200081300313E+07,
2461197.500000000, A.D. 2026-Jun-06 00:00:00.0000, -6.294997092823997E+08, 1.878215070469111E+08, -3.107026734290575E+07,
2461204.500000000, A.D. 2026-Jun-13 00:00:00.0000, -6.330104481636443E+08, 1.806045483695151E+08, -3.171322091781291E+07,
2461211.500000000, A.D. 2026-Jun-20 00:00:00.0000, -6.364137179092500E+08, 1.733570515110272E+08, -3.235078542181372E+07,
2461218.500000000, A.D. 2026-Jun-27 00:00:00.0000, -6.397096098549589E+08, 1.660804295014696E+08, -3.298288633394017E+07,
2461225.500000000, A.D. 2026-Jul-04 00:00:00.0000, -6.428982271769876E+08, 1.587760811707835E+08, -3.360945068619358E+07,
2461232.500000000, A.D. 2026-Jul-11 00:00:00.0000, -6.459796845154605E+08, 1.514453913720185E+08, -3.423040701984812E+07,
2461239.500000000, A.D. 2026-Jul-18 00:00:00.0000, -6.489541076337206E+08, 1.440897311307290E+08, -3.484568534673156E+07,
2461246.500000000, A.D. 2026-Jul-25 00:00:00.0000, -6.518216330888562E+08, 1.367104577232943E+08, -3.545521711774650E+07,
2461253.500000000, A.D. 2026-Aug-01 00:00:00.0000, -6.545824078650217E+08, 1.293089146360062E+08, -3.605893520716354E+07,
2461260.500000000, A.D. 2026-Aug-08 00:00:00.0000, -6.572365887542858E+08, 1.218864313689778E+08, -3.665677393545037E+07,
2461267.500000000, A.D. 2026-Aug-15 00:00:00.0000, -6.597843410695444E+08, 1.144443235351628E+08, -3.724866913195767E+07,
2461274.500000000, A.D. 2026-Aug-22 00:00:00.0000, -6.622258374501849E+08, 1.069838944755841E+08, -3.783455806787645E+07,
2461281.500000000, A.D. 2026-Aug-29 00:00:00.0000, -6.645612590495908E+08, 9.950643701786111E+07, -3.841437916175264E+07,
2461288.500000000, A.D. 2026-Sep-05 00:00:00.0000, -6.667907969709966E+08, 9.201323251005670E+07, -3.898807188768387E+07,
2461295.500000000, A.D. 2026-Sep-12 00:00:00.0000, -6.689146514962533E+08, 8.450554962570861E+07, -3.955557690730989E+07,
2461302.500000000, A.D. 2026-Sep-19 00:00:00.0000, -6.709330309806429E+08, 7.698464448384942E+07, -4.011683612744652E+07,
$$EOE